[Satellite]
VERSION=1.1
NAME=ATLAS 5 CENTAUR R/B
NICKNAME=ATLAS 5 CENTAUR R/B
TLE1=1 40375U 15002B   15039.94320397 -.00000179  00000-0  00000+0 0  9999
TLE2=2 40375  18.9539 325.0569 6085491 184.0130 167.5319  2.08920865   402
